MEAN_MOTION;ECCENTRICITY;INCLINATION;RA_OF_ASC_NODE;ARG_OF_PERICENTER;MEAN_ANOMALY;BSTAR;MEAN_MOTION_DOT;MEAN_MOTION_DDOT;TYPE
14.31031147;0.0010111;98.8023;37.2095;163.8142;257.8279;1.6863E-5;-1.0E-8;0;Amateur
14.31031201;0.0010157;98.8025;38.1992;161.0374;252.2362;1.5178E-5;-6.0E-8;0;Amateur
14.31031212;0.0010162;98.8025;38.2666;160.8741;235.3626;1.5336E-5;-5.0E-8;0;Amateur
14.31031264;0.0010218;98.8027;39.2574;158.1182;234.6613;1.2619E-5;-1.2E-7;0;Amateur
14.31031272;0.001025;98.8028;39.8397;156.4892;317.1371;9.2842E-6;-2.1E-7;0;Amateur
14.31031281;0.001027;98.8029;40.2463;155.3494;225.4123;8.0858E-6;-2.4E-7;0;Amateur
14.31031287;0.0010291;98.803;40.6978;154.101;1.9124;6.5475E-6;-2.8E-7;0;Amateur
14.31031293;0.0010376;98.8032;42.2305;149.8206;238.8891;4.8731E-6;-3.3E-7;0;Amateur
14.31031377;0.0010417;98.8034;43.3005;146.8629;280.949;5.7748E-6;-3.0E-7;0;Amateur
14.31031377;0.0010417;98.8034;43.3005;146.8629;280.949;5.7748E-6;-3.0E-7;0;Amateur
14.31031372;0.001046;98.8036;44.2901;144.198;274.6167;5.4731E-6;-3.1E-7;0;Amateur
14.31031451;0.001052;98.8038;45.2804;141.5089;271.5731;9.8095E-6;-2.0E-7;0;Amateur
14.31031558;0.0010568;98.804;46.2735;138.8521;282.4189;1.3272E-5;-1.1E-7;0;Amateur
14.31031677;0.0010601;98.8042;47.3359;135.9981;285.6635;1.6541E-5;-2.0E-8;0;Amateur
14.31031752;0.0010623;98.8043;48.3258;133.2432;279.9546;1.8599E-5;3.0E-8;0;Amateur
14.31031798;0.0010652;98.8044;48.9755;131.4854;344.3834;1.8634E-5;3.0E-8;0;Amateur
14.31031842;0.0010665;98.8045;49.3911;130.3956;297.5848;1.8712E-5;4.0E-8;0;Amateur
14.31031871;0.0010687;98.8045;49.966;128.8709;341.3333;1.7145E-5;0;0;Amateur
14.31031866;0.0010707;98.8045;50.3098;128.0036;289.37;1.5171E-5;-6.0E-8;0;Amateur
14.31031858;0.0010718;98.8045;50.3819;127.8171;296.2861;1.4335E-5;-8.0E-8;0;Amateur
14.3103189;0.0010742;98.8046;50.9575;126.2874;343.1614;1.3951E-5;-9.0E-8;0;Amateur
14.31031903;0.0010758;98.8046;51.3723;125.179;292.655;1.3485E-5;-1.0E-7;0;Amateur
14.31031966;0.001079;98.8048;52.4334;122.3941;288.4004;1.2241E-5;-1.3E-7;0;Amateur
14.31031966;0.001079;98.8048;52.4334;122.3941;288.4004;1.2241E-5;-1.3E-7;0;Amateur
14.31032022;0.0010815;98.805;53.4289;119.7612;311.2114;9.7754E-6;-2.0E-7;0;Amateur
14.31032023;0.0010818;98.805;53.4941;119.5818;282.3296;9.6732E-6;-2.0E-7;0;Amateur
14.31032055;0.0010843;98.8052;54.4179;117.1446;300.3896;8.3313E-6;-2.4E-7;0;Amateur
14.31032105;0.0010859;98.8053;55.0664;115.4124;358.0395;9.4019E-6;-2.1E-7;0;Amateur
14.31032105;0.0010859;98.8053;55.0664;115.4124;358.0395;9.4019E-6;-2.1E-7;0;Amateur
14.31032128;0.0010864;98.8054;55.4088;114.512;298.8228;9.2968E-6;-2.1E-7;0;Amateur
14.31032209;0.0010886;98.8056;56.4744;111.7428;317.6131;8.9835E-6;-2.2E-7;0;Amateur
14.31032209;0.0010886;98.8056;56.4744;111.7428;317.6131;8.9835E-6;-2.2E-7;0;Amateur
14.31032272;0.001091;98.8058;57.4641;109.1637;309.5271;9.2666E-6;-2.1E-7;0;Amateur
14.31032319;0.0010923;98.8059;58.1131;107.4449;9.5092;1.089E-5;-1.7E-7;0;Amateur
14.31032351;0.0010933;98.806;58.4547;106.5493;306.5503;1.1849E-5;-1.4E-7;0;Amateur
14.31032431;0.0010949;98.8061;59.1053;104.8413;14.2527;1.3945E-5;-9.0E-8;0;Amateur
14.31032464;0.0010955;98.8062;59.4463;103.9576;308.5181;1.4479E-5;-7.0E-8;0;Amateur
14.31032455;0.0010964;98.8062;59.5133;103.7978;288.9256;1.3836E-5;-9.0E-8;0;Amateur
14.31032515;0.001098;98.8063;60.511;101.1955;321.631;1.3959E-5;-9.0E-8;0;Amateur
14.31032561;0.0010994;98.8064;61.5009;98.6284;314.7465;1.5111E-5;-6.0E-8;0;Amateur
14.31032603;0.0011004;98.8065;62.0791;97.1258;14.1391;1.5963E-5;-4.0E-8;0;Amateur
14.31032634;0.0011008;98.8065;62.4927;96.0492;316.9404;1.6823E-5;-1.0E-8;0;Amateur
14.31032641;0.0011011;98.8066;63.1421;94.3435;18.7492;1.4543E-5;-7.0E-8;0;Amateur
14.31032695;0.0011021;98.8067;64.408;91.0626;334.4514;1.4745E-5;-7.0E-8;0;Amateur
14.31032719;0.0011019;98.8068;64.548;90.7001;326.457;1.5271E-5;-5.0E-8;0;Amateur
14.31032797;0.001102;98.8069;65.539;88.1388;324.8404;1.5972E-5;-4.0E-8;0;Amateur
14.31032901;0.0011022;98.807;66.5327;85.5799;336.1577;1.5616E-5;-5.0E-8;0;Amateur
14.31032918;0.001102;98.8071;66.6705;85.2172;316.5621;1.5544E-5;-5.0E-8;0;Amateur
14.3103299;0.0011017;98.8072;67.5951;82.8066;337.1189;1.4053E-5;-9.0E-8;0;Amateur
14.31033043;0.0011014;98.8073;68.2432;81.1018;31.9957;1.4277E-5;-8.0E-8;0;Amateur
14.31033081;0.001101;98.8074;68.5856;80.2075;332.8947;1.4235E-5;-8.0E-8;0;Amateur
14.31033196;0.0010997;98.8076;69.6517;77.4459;352.1614;1.3205E-5;-1.1E-7;0;Amateur
14.31033257;0.0010989;98.8077;70.6328;74.898;299.5043;1.0644E-5;-1.8E-7;0;Amateur
14.31033307;0.0010979;98.8079;71.5629;72.4676;348.0324;1.0718E-5;-1.7E-7;0;Amateur
14.31033341;0.0010968;98.808;72.2819;70.5838;42.9332;1.0404E-5;-1.8E-7;0;Amateur
14.31033341;0.0010964;98.8081;72.6912;69.563;322.8216;8.9542E-6;-2.2E-7;0;Amateur
14.31033356;0.001094;98.8082;73.6902;66.949;0.8266;7.209E-6;-2.7E-7;0;Amateur
14.31033343;0.0010922;98.8084;74.6809;64.3544;356.8043;6.8559E-6;-2.8E-7;0;Amateur
14.31033345;0.001092;98.8084;74.7478;64.1871;336.9166;6.6548E-6;-2.8E-7;0;Amateur
14.31033352;0.0010892;98.8085;75.6713;61.7085;351.0691;7.3698E-6;-2.6E-7;0;Amateur
14.31033407;0.0010876;98.8086;76.321;59.9981;53.7627;9.0625E-6;-2.2E-7;0;Amateur
14.31033433;0.0010862;98.8086;76.737;58.9015;8.1507;1.0024E-5;-1.9E-7;0;Amateur
14.31033472;0.0010847;98.8087;77.3126;57.3608;53.8037;1.0972E-5;-1.7E-7;0;Amateur
14.31033517;0.0010832;98.8087;77.7948;56.0683;344.7291;1.2905E-5;-1.2E-7;0;Amateur
14.31033564;0.0010819;98.8088;78.3043;54.7472;54.2451;1.4366E-5;-8.0E-8;0;Amateur
14.31033601;0.0010802;98.8088;78.7185;53.6752;359.319;1.5571E-5;-5.0E-8;0;Amateur
14.31033681;0.0010787;98.8089;79.3678;52.0104;59.4565;1.6911E-5;-1.0E-8;0;Amateur
14.31033727;0.0010769;98.8089;79.7845;50.8802;17.4662;1.6984E-5;-1.0E-8;0;Amateur
14.31033825;0.0010737;98.809;80.7749;48.2719;11.5159;1.7013E-5;-1.0E-8;0;Amateur
14.31033911;0.0010706;98.8091;81.7658;45.6358;7.4846;1.7109E-5;-1.0E-8;0;Amateur
14.31033917;0.0010704;98.8091;81.8333;45.477;350.7681;1.7213E-5;0;0;Amateur
14.31034003;0.0010668;98.8092;82.7578;43.0478;9.2399;1.6112E-5;-3.0E-8;0;Amateur
14.31034029;0.0010641;98.8093;83.4076;41.3023;71.8112;1.3174E-5;-1.1E-7;0;Amateur
14.31034015;0.0010629;98.8094;83.8234;40.255;24.7275;1.0236E-5;-1.9E-7;0;Amateur
14.31034031;0.0010606;98.8095;84.471;38.5216;76.4371;9.3123E-6;-2.1E-7;0;Amateur
14.31034047;0.0010588;98.8095;84.8133;37.6353;15.9723;8.8313E-6;-2.2E-7;0;Amateur
14.31034063;0.0010556;98.8096;85.4628;35.8459;76.8511;7.6882E-6;-2.5E-7;0;Amateur
14.31034069;0.0010544;98.8097;85.7367;35.1078;29.1882;7.28E-6;-2.7E-7;0;Amateur
14.31034072;0.001054;98.8097;85.8053;34.9316;17.6907;6.9876E-6;-2.7E-7;0;Amateur
14.31034085;0.0010513;98.8098;86.4548;33.1889;78.7891;5.0606E-6;-3.2E-7;0;Amateur
14.31034089;0.0010496;98.8099;86.7985;32.2534;25.2573;4.4807E-6;-3.4E-7;0;Amateur
14.310341;0.0010492;98.8099;86.8709;32.0501;33.5557;4.6901E-6;-3.3E-7;0;Amateur
14.31034086;0.0010464;98.81;87.4471;30.4677;81.8865;3.1212E-6;-3.8E-7;0;Amateur
14.31034112;0.0010447;98.81;87.8615;29.3227;27.7901;4.5141E-6;-3.4E-7;0;Amateur
14.31034163;0.00104;98.8102;88.8545;26.5865;34.2623;6.7893E-6;-2.8E-7;0;Amateur
14.31034208;0.0010369;98.8103;89.5046;24.836;98.1931;7.8322E-6;-2.5E-7;0;Amateur
14.31034243;0.0010342;98.8103;89.9195;23.6719;46.4353;8.6733E-6;-2.3E-7;0;Amateur
14.31034332;0.0010294;98.8104;90.9012;20.979;355.495;1.1811E-5;-1.5E-7;0;Amateur
14.31034413;0.0010237;98.8105;91.9683;18.0894;18.2459;1.5109E-5;-6.0E-8;0;Amateur
14.31034447;0.0010208;98.8106;92.5503;16.4578;95.747;1.5712E-5;-4.0E-8;0;Amateur
14.31034494;0.0010157;98.8106;93.5424;13.686;97.0906;1.4189E-5;-8.0E-8;0;Amateur
14.31034536;0.0010131;98.8107;93.9587;12.5284;52.4767;1.5097E-5;-6.0E-8;0;Amateur
14.31034559;0.0010099;98.8107;94.5353;10.9301;102.3827;1.4719E-5;-7.0E-8;0;Amateur
14.31034607;0.0010078;98.8108;94.9487;9.7462;43.2049;1.6275E-5;-3.0E-8;0;Amateur
14.31034666;0.0010044;98.8108;95.598;7.9318;102.4901;1.6848E-5;-1.0E-8;0;Amateur
14.31034676;0.0010019;98.8109;96.012;6.7307;45.9543;1.4827E-5;-7.0E-8;0;Amateur
14.31034676;0.0010019;98.8109;96.012;6.7307;45.9543;1.4827E-5;-7.0E-8;0;Amateur
14.3103473;0.000996;98.811;97.0072;3.9133;63.189;1.2001E-5;-1.4E-7;0;Amateur
14.31034734;0.0009955;98.811;97.0728;3.7278;36.3194;1.1962E-5;-1.4E-7;0;Amateur
14.31034755;0.0009929;98.8111;97.5829;2.2685;108.2461;1.0795E-5;-1.7E-7;0;Amateur
14.31034835;0.0009874;98.8112;98.5756;359.4091;112.6489;1.0833E-5;-1.7E-7;0;Amateur
14.31034878;0.0009809;98.8113;99.6381;356.3486;111.5154;7.6767E-6;-2.6E-7;0;Amateur
14.310349;0.0009783;98.8113;100.0552;355.135;71.2911;6.6962E-6;-2.8E-7;0;Amateur
14.31034959;0.0009722;98.8114;101.0464;352.2885;67.5802;6.4649E-6;-2.9E-7;0;Amateur
14.3103503;0.0009665;98.8116;102.0374;349.4279;63.4247;8.1497E-6;-2.4E-7;0;Amateur
14.31035038;0.0009661;98.8116;102.1051;349.2297;47.2884;8.3392E-6;-2.4E-7;0;Amateur
14.3103511;0.0009604;98.8117;103.1039;346.2792;82.5439;9.2157E-6;-2.2E-7;0;Amateur
14.31035141;0.0009571;98.8118;103.6794;344.5954;127.1011;9.1025E-6;-2.2E-7;0;Amateur
14.31035156;0.0009552;98.8118;104.0947;343.365;77.3059;9.3079E-6;-2.1E-7;0;Amateur
14.31035226;0.00095;98.8119;105.0857;340.4275;72.6662;1.2399E-5;-1.3E-7;0;Amateur
14.31035274;0.0009475;98.812;105.7403;338.4303;158.3299;1.4202E-5;-8.0E-8;0;Amateur
14.31035283;0.0009446;98.812;106.1451;337.2173;55.0498;1.3534E-5;-1.0E-7;0;Amateur
14.31035293;0.0009402;98.8121;107.1439;334.1768;89.7443;1.1395E-5;-1.6E-7;0;Amateur
14.3103529;0.0009397;98.8121;107.2102;333.9866;66.655;1.1007E-5;-1.7E-7;0;Amateur
14.310353;0.0009352;98.8122;108.1352;331.1884;86.2582;1.0742E-5;-1.8E-7;0;Amateur
14.31035337;0.000933;98.8122;108.7843;329.2189;144.1899;1.1639E-5;-1.5E-7;0;Amateur
14.31035348;0.0009305;98.8122;109.1936;327.9208;63.8056;1.0727E-5;-1.8E-7;0;Amateur
14.31035395;0.0009255;98.8123;110.1204;325.0765;92.8351;9.8283E-6;-2.0E-7;0;Amateur
14.31035409;0.0009249;98.8122;110.1936;324.8441;104.8223;1.0115E-5;-1.9E-7;0;Amateur
14.31035464;0.0009199;98.8123;111.1837;321.8103;94.9926;1.0065E-5;-1.9E-7;0;Amateur
